#dP2024  1 10  0  0  0.00000000      96 __u+U IGS20 FIT  IAC
## 2296 259200.00000000   900.00000000 60319 0.0000000000000
+  119   C06C07C08C09C10C11C12C13C14C16C19C20C21C22C23C24C25
+        C26C27C28C29C30C32C33C34C35C36C37C38C39C40C41C42C43
+        C44C45C46E02E03E04E05E07E08E09E10E11E12E13E14E15E18
+        E19E21E24E25E26E27E30E31E33E34E36G01G02G03G04G05G06
+        G07G08G09G10G11G12G13G14G15G16G17G18G19G20G21G22G23
+        G24G25G26G28G29G30G31G32J02J03J04R01R02R03R04R05R07
+        R08R09R11R12R13R14R15R16R17R18R19R20R21R22R24R25R26
++         9  8  9  7  8  8  8  9 10  9  8  9  6  7  7  7  7
++         5  8  7  7  6  9  8  6  6  7  6  8  8  8  6  6  6
++         7  8  7  6  6  6  6  7  6  6  6  5  6  5  7  6  6
++         6  6  6  6  5  5  5  6  6  6  7  7  7  6  6  6  6
++         5  7  6  6  6  6  5  5  6  6  5  5  5  4  6  6  6
++         5  4  6  5  6  5  5 11  9  5  8  8  6  6  6  6  7
++         5  6  6  7  7  5  7  6  6  6  7  7  6  7  5  5  8
%c M  cc GPS ccc cccc cccc cccc cccc ccccc ccccc ccccc ccccc
%c cc cc ccc ccc cccc cccc cccc cccc ccccc ccccc ccccc ccccc
%f  0.0000000  0.000000000  0.00000000000  0.000000000000000
%f  0.0000000  0.000000000  0.00000000000  0.000000000000000
%i    0    0    0    0      0      0      0      0         0
%i    0    0    0    0      0      0      0      0         0
/* INFORMATION & ANALYSIS CENTER (IAC)      ULTRA-RAPID DATA
/* S/V CLOCKS ARE ALIGNED TO GNSS TIME                      
/* G:C1WC2W R:C1PC2P E:C1XC5X C:C2IC6I J:C1CC2S             
/* PCV:IGS20_2290 OL/AL:FES2004  NONE     YN ORB:CoN CLK:CoN
*  2024 01 10  6  0  0.00000000
PC06 -18970.144500  29341.889592  23421.575998     39.218514
PC07  -5303.303261  40385.566264  11353.455605   -613.511514
PC08   -910.173494  22179.867142 -35801.954209    122.915900
PC09  -8342.785633  28116.410029  30487.564669   -332.773799
PC10   -504.411202  42024.966489   6339.117742    131.844852
PC11  17961.608777 -21058.784540   3600.140180    350.522275
PC12  22236.427024  -9051.252287 -14182.671171    800.641011
PC13   5819.262866  25458.893119 -32863.585111    405.807586
PC14   7074.974580 -19789.335539  18347.382568    -65.216380
PC16 -19047.602111  29189.258390  23748.119246   -273.187725
PC19   -320.807960  25527.202559 -11266.088649   -939.881094
PC20 -11668.136388  12709.025607 -21927.982762    -51.359882
PC21  16967.646830   9093.517072  20224.825636   -964.614023
PC22  11821.818201  24446.732517   6474.435529   -153.425546
PC23 -14956.904845 -16247.079099 -17073.047602   -792.110491
PC24  22819.809649  -5735.937727 -15004.706290    775.433675
PC25   4446.324576 -15735.280575 -22628.337627    298.316303
PC26  27141.658008   6351.440703    773.886508   -232.580076
PC27 -19794.972133    785.600080  19633.217814    254.601484
PC28  -8031.920811 -14381.409679  22533.815958    193.071042
PC29 -10077.348823  23395.144862 -11392.403774    226.158852
PC30 -21234.443620  16790.183275   6723.045486    -14.170905
PC32 -17032.961495  -9056.930655 -20146.457293   -551.950429
PC33    278.072557 -25470.922391  11388.298674   -942.715145
PC34  20858.867849 -17787.486207  -5299.861583    343.879807
PC35   8636.768450  14111.475445 -22476.578020    460.757831
PC36  -5611.137673  15412.061963  22589.940248    -58.538928
PC37 -26906.366321  -7343.019615  -1335.217941   -931.625520
PC38 -10254.199894  20245.011244 -35473.438831    129.523797
PC39 -24522.778204  29676.188057  16963.526327     -6.567395
PC40 -10821.797546  38004.378224  15068.944477    -51.447306
PC41 -11484.639837 -24785.081789  -5635.887015   -878.597826
PC42  12534.673958 -11062.786175  22383.312335   -467.833028
PC43  10834.770086 -23459.115091  10561.348736     55.802739
PC44  19795.067378  -1300.912759 -19650.771582    349.236363
PC45  15281.110143  16095.274470  16888.403505    -61.932942
PC46 -22206.743310   6218.975156  15730.952719   -114.435149
PE02  -8387.932906  15203.354097  23960.273155     93.804912
PE03 -13113.726752  25417.840429  -7642.122272    -86.002972
PE04    132.266276 -27480.648164 -11000.516760   -300.145471
PE05 -18309.809422   8591.436504 -21610.592481   4708.877802
PE07  12629.073226  13811.906429  22935.870560    -97.609113
PE08   -640.658213  27676.283798  10482.969286   -205.659485
PE09 -12444.651841 -13883.978713 -22988.881445   -294.124760
PE10 -12395.653813 -12681.193532  23701.818057   -592.992531
PE11 -22133.309706  -6955.649118  18371.347844   3280.691265
PE12  -1851.269779 -16052.927519  24804.966082   -856.209501
PE13  21604.423402   7297.443800 -18866.574369    -19.865733
PE14   6945.168195  25975.089873 -17954.279475      6.260923
PE15   1250.466173  16087.294687 -24801.866036    -79.366292
PE18 -10062.990987 -13783.885899  16835.936208    193.748795
PE19  14290.542118 -24017.586825   9768.559669   -842.551687
PE21  21248.506072   1964.097652 -20516.291121   -573.140341
PE24 -22125.564787 -19164.559925   4483.174921   -533.774676
PE25 -21417.543682  -2363.048156  20299.128412     -0.731433
PE26  28953.201750  -6010.343493  -1333.668656    334.928110
PE27  22319.425238  18791.783067  -4940.294356   -245.631914
PE30   9893.219963  24364.803229  13553.939547   -812.320474
PE31 -10230.785169 -24354.999391 -13364.934105    -13.454776
PE33  20009.811809 -15154.192213  15695.525317      5.696820
PE34 -19509.479564  15358.073631 -16116.376653    -88.157301
PE36 -28991.667691   5595.489543   2024.405728   -169.744380
PG01   5143.707367  13905.755357 -22407.006460    165.713606
PG02  -2745.249191  15882.652551 -20565.455050   -503.085936
PG03   8714.680526  21628.460564 -12967.875699    115.841712
PG04    150.759470  24104.781555  11009.887292    262.211054
PG05   1648.702441 -17260.410458  19918.938782   -157.400703
PG06  25861.668751  -6284.999098    344.538006    449.856334
PG07  19401.224722   7837.154562  17111.429927    -33.609685
PG08  -4691.972695  25784.830319  -2595.172446   -161.347939
PG09   9671.058683  15720.790306  18993.629223     54.055151
PG10 -20695.883663  -6919.847108 -15167.021374    -68.735004
PG11  20993.332620 -11908.585736  11055.969156   -534.284319
PG12  -6980.867590 -22339.922283 -12908.683251   -466.359097
PG13  13555.891104 -22135.652929   4848.216920    614.374695
PG14  21286.061429  10139.678202 -12383.258346    294.611886
PG15   1443.027635 -26302.738498  -2800.438552    115.707343
PG16  -9278.304839  12150.765002  21347.696480   -387.175280
PG17  15003.971905   1551.627755 -21445.065076    720.227542
PG18 -20252.724715  -6545.602832  16017.733733   -528.405830
PG19  17078.076610  -7584.418042 -18922.156317    424.473774
PG20  13620.556084  -8673.362708  21119.322670    392.284876
PG21  -6989.861586  16352.267689 -18901.244808    138.883564
PG22  18865.070469   3788.262661 -17746.909255     50.836706
PG23 -20740.078766 -16136.433772  -4493.241258    132.440984
PG24   3195.504575 -17095.572586 -20379.081304   -410.944117
PG25 -16792.740987 -20520.548133  -3538.814191    484.725582
PG26 -16933.181841   4659.373318  19875.165114    201.704813
PG28 -25876.585806   5284.273966  -2806.183360    -94.319352
PG29  -7189.681076 -17255.029511  18781.708055   -608.890546
PG30  25356.062015    272.941113   8470.274740   -447.256991
PG31 -24137.815590   9773.560193   6015.578861   -227.201617
PG32 -15879.396540   2648.217446 -20894.190743   -603.898073
PJ02 -26628.049793  21735.242925  29539.310423     -1.071264
PJ03 -34499.533192  22273.988190  -5160.121045     -0.142428
PJ04 -18105.313202  29963.189220 -18478.061082     76.434887
PR01  10292.379810  16151.053581  16855.161315     74.206615
PR02  10630.439792  -2112.397497  23137.662496    -22.384790
PR03   5425.701426 -19257.013236  15911.428313     92.466602
PR04  -2435.029890 -25401.973955    200.154963    218.792215
PR05  -9019.593971 -18015.553112 -15652.069051    125.132752
PR07  -5039.987294  19812.750823 -15177.050925     73.251499
PR08   2793.703017  25334.113776    173.688943    -73.961975
PR09 -22531.906571  -2944.500361  11522.431347    163.554295
PR11   6117.158732  13366.931417  20854.991978   -226.305696
PR12  21389.233904  12469.420441   6118.218803     35.433476
PR13  23192.701321   4785.327794  -9492.068194    -43.141440
PR14  10573.389657  -7171.479993 -22075.976354     25.913189
PR15  -7428.736425 -13793.374272 -20117.785336     83.227591
PR16 -21339.150921 -12388.650768  -6404.580775     22.328047
PR17  18122.415515 -16733.735102   6440.556695     51.025652
PR18   5968.330947 -15102.040201  19712.289654    121.345525
PR19  -7874.911997  -7176.308662  23182.379545   -261.474810
PR20 -21189.025688   7592.371243  11974.408755   -106.567673
PR21 -18081.806734  16656.226781  -6839.670451    -67.753838
PR22  -5209.432733  14829.434479 -20053.848413    102.435187
PR24  21148.625051  -8667.789920 -11290.821632    -39.306764
PR25 -18759.513483  16050.039407  -6441.713902     27.059516
PR26      0.000000      0.000000      0.000000   -204.272213
EOF
